[{"OBJECT_NAME":"TRANSPORTER-16 OBJECT CT","OBJECT_ID":"2026-067CT","EPOCH":"2026-04-13T22:23:59.236800","MEAN_MOTION":14.90621545,"ECCENTRICITY":0.00037334,"INCLINATION":97.7555,"RA_OF_ASC_NODE":63.1783,"ARG_OF_PERICENTER":255.6922,"MEAN_ANOMALY":104.3882,"EPHEMERIS_TYPE":0,"CLASSIFICATION_TYPE":"U","NORAD_CAT_ID":68505,"ELEMENT_SET_NO":999,"REV_AT_EPOCH":214,"BSTAR":0.00025848112,"MEAN_MOTION_DOT":2.476e-5,"MEAN_MOTION_DDOT":0},{"OBJECT_NAME":"STARLINK-37262","OBJECT_ID":"2026-068A","EPOCH":"2026-04-15T14:06:41.821056","MEAN_MOTION":15.80962478,"ECCENTRICITY":9.677e-5,"INCLINATION":53.1584,"RA_OF_ASC_NODE":324.4121,"ARG_OF_PERICENTER":141.6566,"MEAN_ANOMALY":218.4526,"EPHEMERIS_TYPE":0,"CLASSIFICATION_TYPE":"U","NORAD_CAT_ID":68508,"ELEMENT_SET_NO":999,"REV_AT_EPOCH":250,"BSTAR":0.0013485314,"MEAN_MOTION_DOT":0.0027525,"MEAN_MOTION_DDOT":0},{"OBJECT_NAME":"STARLINK-36292","OBJECT_ID":"2026-068B","EPOCH":"2026-04-15T14:05:37.055616","MEAN_MOTION":15.81012921,"ECCENTRICITY":6.15e-5,"INCLINATION":53.158,"RA_OF_ASC_NODE":324.4062,"ARG_OF_PERICENTER":146.1807,"MEAN_ANOMALY":213.9255,"EPHEMERIS_TYPE":0,"CLASSIFICATION_TYPE":"U","NORAD_CAT_ID":68509,"ELEMENT_SET_NO":999,"REV_AT_EPOCH":250,"BSTAR":0.0018360042,"MEAN_MOTION_DOT":0.00380567,"MEAN_MOTION_DDOT":0},{"OBJECT_NAME":"STARLINK-37260","OBJECT_ID":"2026-068C","EPOCH":"2026-04-15T14:04:32.381760","MEAN_MOTION":15.80985577,"ECCENTRICITY":0.00011588,"INCLINATION":53.1583,"RA_OF_ASC_NODE":324.4012,"ARG_OF_PERICENTER":153.0764,"MEAN_ANOMALY":207.032,"EPHEMERIS_TYPE":0,"CLASSIFICATION_TYPE":"U","NORAD_CAT_ID":68510,"ELEMENT_SET_NO":999,"REV_AT_EPOCH":250,"BSTAR":0.0016017188,"MEAN_MOTION_DOT":0.00329498,"MEAN_MOTION_DDOT":0},{"OBJECT_NAME":"STARLINK-37280","OBJECT_ID":"2026-068D","EPOCH":"2026-04-15T03:26:12.098976","MEAN_MOTION":15.8094177,"ECCENTRICITY":7.807e-5,"INCLINATION":53.1584,"RA_OF_ASC_NODE":326.6139,"ARG_OF_PERICENTER":94.8671,"MEAN_ANOMALY":265.2441,"EPHEMERIS_TYPE":0,"CLASSIFICATION_TYPE":"U","NORAD_CAT_ID":68511,"ELEMENT_SET_NO":999,"REV_AT_EPOCH":243,"BSTAR":0.0008937321,"MEAN_MOTION_DOT":0.00179989,"MEAN_MOTION_DDOT":0},{"OBJECT_NAME":"STARLINK-37286","OBJECT_ID":"2026-068E","EPOCH":"2026-04-15T14:02:22.753248","MEAN_MOTION":15.80980278,"ECCENTRICITY":7.763e-5,"INCLINATION":53.1583,"RA_OF_ASC_NODE":324.3912,"ARG_OF_PERICENTER":168.0258,"MEAN_ANOMALY":192.0783,"EPHEMERIS_TYPE":0,"CLASSIFICATION_TYPE":"U","NORAD_CAT_ID":68512,"ELEMENT_SET_NO":999,"REV_AT_EPOCH":250,"BSTAR":0.0013831203,"MEAN_MOTION_DOT":0.00282814,"MEAN_MOTION_DDOT":0},{"OBJECT_NAME":"STARLINK-36250","OBJECT_ID":"2026-068F","EPOCH":"2026-04-15T14:01:18.097536","MEAN_MOTION":15.80964538,"ECCENTRICITY":0.00025142,"INCLINATION":53.1583,"RA_OF_ASC_NODE":324.3856,"ARG_OF_PERICENTER":91.3065,"MEAN_ANOMALY":268.8246,"EPHEMERIS_TYPE":0,"CLASSIFICATION_TYPE":"U","NORAD_CAT_ID":68513,"ELEMENT_SET_NO":999,"REV_AT_EPOCH":250,"BSTAR":0.0013937432,"MEAN_MOTION_DOT":0.00284856,"MEAN_MOTION_DDOT":0},{"OBJECT_NAME":"STARLINK-37251","OBJECT_ID":"2026-068G","EPOCH":"2026-04-15T01:51:55.695744","MEAN_MOTION":15.80924253,"ECCENTRICITY":0.00012052,"INCLINATION":53.1587,"RA_OF_ASC_NODE":326.916,"ARG_OF_PERICENTER":76.9772,"MEAN_ANOMALY":283.1386,"EPHEMERIS_TYPE":0,"CLASSIFICATION_TYPE":"U","NORAD_CAT_ID":68514,"ELEMENT_SET_NO":999,"REV_AT_EPOCH":242,"BSTAR":0.00063957275,"MEAN_MOTION_DOT":0.00127717,"MEAN_MOTION_DDOT":0},{"OBJECT_NAME":"STARLINK-36293","OBJECT_ID":"2026-068H","EPOCH":"2026-04-15T13:59:08.137248","MEAN_MOTION":15.80963184,"ECCENTRICITY":4.013e-5,"INCLINATION":53.1582,"RA_OF_ASC_NODE":324.3761,"ARG_OF_PERICENTER":124.396,"MEAN_ANOMALY":235.7101,"EPHEMERIS_TYPE":0,"CLASSIFICATION_TYPE":"U","NORAD_CAT_ID":68515,"ELEMENT_SET_NO":999,"REV_AT_EPOCH":250,"BSTAR":0.0013993415,"MEAN_MOTION_DOT":0.00286029,"MEAN_MOTION_DDOT":0},{"OBJECT_NAME":"STARLINK-36290","OBJECT_ID":"2026-068J","EPOCH":"2026-04-15T15:29:05.492544","MEAN_MOTION":15.80974129,"ECCENTRICITY":7.099e-5,"INCLINATION":53.1584,"RA_OF_ASC_NODE":324.0536,"ARG_OF_PERICENTER":128.2837,"MEAN_ANOMALY":231.825,"EPHEMERIS_TYPE":0,"CLASSIFICATION_TYPE":"U","NORAD_CAT_ID":68516,"ELEMENT_SET_NO":999,"REV_AT_EPOCH":251,"BSTAR":0.0014918127,"MEAN_MOTION_DOT":0.00305835,"MEAN_MOTION_DDOT":0},{"OBJECT_NAME":"STARLINK-36298","OBJECT_ID":"2026-068K","EPOCH":"2026-04-15T13:56:58.945920","MEAN_MOTION":15.80976508,"ECCENTRICITY":9.803e-5,"INCLINATION":53.1584,"RA_OF_ASC_NODE":324.3664,"ARG_OF_PERICENTER":113.7864,"MEAN_ANOMALY":246.3262,"EPHEMERIS_TYPE":0,"CLASSIFICATION_TYPE":"U","NORAD_CAT_ID":68517,"ELEMENT_SET_NO":999,"REV_AT_EPOCH":250,"BSTAR":0.0017461092,"MEAN_MOTION_DOT":0.00360426,"MEAN_MOTION_DDOT":0},{"OBJECT_NAME":"STARLINK-36857","OBJECT_ID":"2026-068L","EPOCH":"2026-04-15T13:54:48.996864","MEAN_MOTION":15.80988546,"ECCENTRICITY":4.336e-5,"INCLINATION":53.1581,"RA_OF_ASC_NODE":324.3563,"ARG_OF_PERICENTER":113.2061,"MEAN_ANOMALY":246.9008,"EPHEMERIS_TYPE":0,"CLASSIFICATION_TYPE":"U","NORAD_CAT_ID":68518,"ELEMENT_SET_NO":999,"REV_AT_EPOCH":250,"BSTAR":0.001650109,"MEAN_MOTION_DOT":0.00339956,"MEAN_MOTION_DDOT":0},{"OBJECT_NAME":"STARLINK-36326","OBJECT_ID":"2026-068M","EPOCH":"2026-04-15T13:55:53.921280","MEAN_MOTION":15.80992251,"ECCENTRICITY":5.749e-5,"INCLINATION":53.1582,"RA_OF_ASC_NODE":324.3613,"ARG_OF_PERICENTER":105.9793,"MEAN_ANOMALY":254.1293,"EPHEMERIS_TYPE":0,"CLASSIFICATION_TYPE":"U","NORAD_CAT_ID":68519,"ELEMENT_SET_NO":999,"REV_AT_EPOCH":250,"BSTAR":0.0017266731,"MEAN_MOTION_DOT":0.00356512,"MEAN_MOTION_DDOT":0},{"OBJECT_NAME":"STARLINK-37126","OBJECT_ID":"2026-068N","EPOCH":"2026-04-15T13:53:44.085408","MEAN_MOTION":15.80950183,"ECCENTRICITY":8.49e-5,"INCLINATION":53.158,"RA_OF_ASC_NODE":324.3511,"ARG_OF_PERICENTER":150.6552,"MEAN_ANOMALY":209.4519,"EPHEMERIS_TYPE":0,"CLASSIFICATION_TYPE":"U","NORAD_CAT_ID":68520,"ELEMENT_SET_NO":999,"REV_AT_EPOCH":250,"BSTAR":0.0012109212,"MEAN_MOTION_DOT":0.00246109,"MEAN_MOTION_DDOT":0},{"OBJECT_NAME":"STARLINK-36347","OBJECT_ID":"2026-068P","EPOCH":"2026-04-15T13:52:39.453024","MEAN_MOTION":15.81005538,"ECCENTRICITY":9.899e-5,"INCLINATION":53.1587,"RA_OF_ASC_NODE":324.3467,"ARG_OF_PERICENTER":147.6262,"MEAN_ANOMALY":212.4822,"EPHEMERIS_TYPE":0,"CLASSIFICATION_TYPE":"U","NORAD_CAT_ID":68521,"ELEMENT_SET_NO":999,"REV_AT_EPOCH":250,"BSTAR":0.0017954253,"MEAN_MOTION_DOT":0.00371609,"MEAN_MOTION_DDOT":0},{"OBJECT_NAME":"STARLINK-36322","OBJECT_ID":"2026-068Q","EPOCH":"2026-04-15T13:51:34.563168","MEAN_MOTION":15.80990029,"ECCENTRICITY":9.64e-5,"INCLINATION":53.1581,"RA_OF_ASC_NODE":324.3418,"ARG_OF_PERICENTER":134.2364,"MEAN_ANOMALY":225.8738,"EPHEMERIS_TYPE":0,"CLASSIFICATION_TYPE":"U","NORAD_CAT_ID":68522,"ELEMENT_SET_NO":999,"REV_AT_EPOCH":250,"BSTAR":0.0016993938,"MEAN_MOTION_DOT":0.00350577,"MEAN_MOTION_DDOT":0}]
