TRANSPORTER-16 OBJECT CT
1 68505U 26067CT  26103.93332450  .00002476  00000+0  25848-3 0  9994
2 68505  97.7555  63.1783 0003733 255.6922 104.3882 14.90621545  2149
STARLINK-37262
1 68508U 26068A   26105.58798404  .00275250  00000+0  13485-2 0  9991
2 68508  53.1584 324.4121 0000967 141.6566 218.4526 15.80962478  2508
STARLINK-36292
1 68509U 26068B   26105.58723444  .00380567  00000+0  18360-2 0  9999
2 68509  53.1580 324.4062 0000615 146.1807 213.9255 15.81012921  2506
STARLINK-37260
1 68510U 26068C   26105.58648590  .00329498  00000+0  16017-2 0  9992
2 68510  53.1583 324.4012 0001158 153.0764 207.0320 15.80985577  2500
STARLINK-37280
1 68511U 26068D   26105.14319559  .00179989  00000+0  89373-3 0  9999
2 68511  53.1584 326.6139 0000780  94.8671 265.2441 15.80941770  2434
STARLINK-37286
1 68512U 26068E   26105.58498557  .00282814  00000+0  13831-2 0  9991
2 68512  53.1583 324.3912 0000776 168.0258 192.0783 15.80980278  2508
STARLINK-36250
1 68513U 26068F   26105.58423724  .00284856  00000+0  13937-2 0  9991
2 68513  53.1583 324.3856 0002514  91.3065 268.8246 15.80964538  2509
STARLINK-37251
1 68514U 26068G   26105.07772796  .00127717  00000+0  63957-3 0  9992
2 68514  53.1587 326.9160 0001205  76.9772 283.1386 15.80924253  2426
STARLINK-36293
1 68515U 26068H   26105.58273307  .00286029  00000+0  13993-2 0  9999
2 68515  53.1582 324.3761 0000401 124.3960 235.7101 15.80963184  2508
STARLINK-36290
1 68516U 26068J   26105.64520246  .00305835  00000+0  14918-2 0  9999
2 68516  53.1584 324.0536 0000709 128.2837 231.8250 15.80974129  2519
STARLINK-36298
1 68517U 26068K   26105.58123780  .00360426  00000+0  17461-2 0  9998
2 68517  53.1584 324.3664 0000980 113.7864 246.3262 15.80976508  2501
STARLINK-36857
1 68518U 26068L   26105.57973376  .00339956  00000+0  16501-2 0  9990
2 68518  53.1581 324.3563 0000433 113.2061 246.9008 15.80988546  2503
STARLINK-36326
1 68519U 26068M   26105.58048520  .00356512  00000+0  17267-2 0  9993
2 68519  53.1582 324.3613 0000574 105.9793 254.1293 15.80992251  2502
STARLINK-37126
1 68520U 26068N   26105.57898247  .00246109  00000+0  12109-2 0  9993
2 68520  53.1580 324.3511 0000849 150.6552 209.4519 15.80950183  2506
STARLINK-36347
1 68521U 26068P   26105.57823441  .00371609  00000+0  17954-2 0  9995
2 68521  53.1587 324.3467 0000989 147.6262 212.4822 15.81005538  2500
STARLINK-36322
1 68522U 26068Q   26105.57748337  .00350577  00000+0  16994-2 0  9990
2 68522  53.1581 324.3418 0000964 134.2364 225.8738 15.80990029  2500
